[
    {
        "Altitude(m)": 617719.7837120063,
        "Argument of Periapsis(deg)": 0.0,
        "Eccentricity": 0.0,
        "Inclination(deg)": 60.0,
        "Latitude(deg)": -41.1026746735527,
        "Longitude(deg)": -129.90543431023877,
        "Mean Anomaly(deg)": 229.09090000000003,
        "RAAN(deg)": 120.0,
        "Satellite Name": "Test1 542",
        "Satellite Number": 542,
        "Semi-Major Axis(m)": 6980739.136638005,
        "Time(s)": 0
    },
    {
        "Altitude(m)": 617911.3199494187,
        "Argument of Periapsis(deg)": 0.00010418945913296404,
        "Eccentricity": 0.0,
        "Inclination(deg)": 60.0,
        "Latitude(deg)": -41.56586747089497,
        "Longitude(deg)": -129.4010288273757,
        "Mean Anomaly(deg)": 229.71100614546188,
        "RAAN(deg)": 119.99957995086024,
        "Satellite Name": "Test1 542",
        "Satellite Number": 542,
        "Semi-Major Axis(m)": 6980739.136638005,
        "Time(s)": 10
    }
]